{
    "CCSDS_OMM_VERS": "3.0",
    "COMMENT": "GENERATED VIA SPACE-TRACK.ORG API",
    "CREATION_DATE": "2025-05-22T22:36:18",
    "ORIGINATOR": "18 SPCS",
    "OBJECT_NAME": "BEIDOU 3M27",
    "OBJECT_ID": "2024-168C",
    "CENTER_NAME": "EARTH",
    "REF_FRAME": "TEME",
    "TIME_SYSTEM": "UTC",
    "MEAN_ELEMENT_THEORY": "SGP4",
    "EPOCH": "2025-05-22T20:05:40.904736",
    "MEAN_MOTION": "1.86229944",
    "ECCENTRICITY": "0.00019550",
    "INCLINATION": "54.8128",
    "RA_OF_ASC_NODE": "315.7586",
    "ARG_OF_PERICENTER": "32.9043",
    "MEAN_ANOMALY": "291.1077",
    "EPHEMERIS_TYPE": "0",
    "CLASSIFICATION_TYPE": "U",
    "NORAD_CAT_ID": "61187",
    "ELEMENT_SET_NO": "999",
    "REV_AT_EPOCH": "454",
    "BSTAR": "0.00000000000000",
    "MEAN_MOTION_DOT": "-0.00000057",
    "MEAN_MOTION_DDOT": "0.0000000000000",
    "SEMIMAJOR_AXIS": "27906.294",
    "PERIOD": "773.238",
    "APOAPSIS": "21533.615",
    "PERIAPSIS": "21522.703",
    "OBJECT_TYPE": "PAYLOAD",
    "RCS_SIZE": "LARGE",
    "COUNTRY_CODE": "PRC",
    "LAUNCH_DATE": "2024-09-19",
    "SITE": "XSC",
    "DECAY_DATE": null,
    "FILE": "4736352",
    "GP_ID": "288161320",
    "TLE_LINE0": "0 BEIDOU 3M27",
    "TLE_LINE1": "1 61187U 24168C   25142.83727899 -.00000057  00000-0  00000+0 0  9993",
    "TLE_LINE2": "2 61187  54.8128 315.7586 0001955  32.9043 291.1077  1.86229944  4544"
}